{"type": "FeatureCollection", "features": [ {"type": "Feature", "properties": {"norad_id": 36539, "name": "COSMOS 2251 DEB", "group": "cosmos-2251-debris", "lat": -32.383752439683875, "lon": 45.50907763580862, "alt_km": 712.2532149952895, "timestamp": "2025-12-12T07:43:20.913259+00:00", "meta": {"OBJECT_NAME": "COSMOS 2251 DEB", "OBJECT_ID": "1993-036BCZ", "EPOCH": "2025-12-11T15:25:29.467488", "MEAN_MOTION": 14.59291195, "ECCENTRICITY": 0.00272696, "INCLINATION": 74.0237, "RA_OF_ASC_NODE": 57.2724, "ARG_OF_PERICENTER": 202.5969, "MEAN_ANOMALY": 157.3998, "EPHEMERIS_TYPE": 0, "CLASSIFICATION_TYPE": "U", "NORAD_CAT_ID": 36539, "ELEMENT_SET_NO": 999, "REV_AT_EPOCH": 83931, "BSTAR": 0.0011949516, "MEAN_MOTION_DOT": 5.65e-05, "MEAN_MOTION_DDOT": 0}, "tle": {"line1": "1 36539U 93036BCZ 25345.64270217  .00005650  00000+0  11950-2 0  9998", "line2": "2 36539  74.0237  57.2724 0027269 202.5969 157.3998 14.59291195839319"}}, "geometry": {"type": "Point", "coordinates": [45.50907763580862, -32.383752439683875]}}, {"type": "Feature", "properties": {"norad_id": 36540, "name": "COSMOS 2251 DEB", "group": "cosmos-2251-debris", "lat": -65.24327513963455, "lon": 142.9189684605094, "alt_km": 696.5717329111285, "timestamp": "2025-12-12T07:43:20.913270+00:00", "meta": {"OBJECT_NAME": "COSMOS 2251 DEB", "OBJECT_ID": "1993-036BDA", "EPOCH": "2025-12-10T19:49:44.721120", "MEAN_MOTION": 14.58450525, "ECCENTRICITY": 0.00150636, "INCLINATION": 74.0281, "RA_OF_ASC_NODE": 184.1599, "ARG_OF_PERICENTER": 254.4622, "MEAN_ANOMALY": 105.488, "EPHEMERIS_TYPE": 0, "CLASSIFICATION_TYPE": "U", "NORAD_CAT_ID": 36540, "ELEMENT_SET_NO": 999, "REV_AT_EPOCH": 85982, "BSTAR": 0.0015654677, "MEAN_MOTION_DOT": 7.253e-05, "MEAN_MOTION_DDOT": 0}, "tle": {"line1": "1 36540U 93036BDA 25344.82621205  .00007253  00000+0  15655-2 0  9993", "line2": "2 36540  74.0281 184.1599 0015063 254.4622 105.4880 14.58450525859826"}}, "geometry": {"type": "Point", "coordinates": [142.9189684605094, -65.24327513963455]}}, {"type": "Feature", "properties": {"norad_id": 36550, "name": "COSMOS 2251 DEB", "group": "cosmos-2251-debris", "lat": 4.408736031370202, "lon": 12.233358702729497, "alt_km": 782.5115206880655, "timestamp": "2025-12-12T07:43:20.913280+00:00", "meta": {"OBJECT_NAME": "COSMOS 2251 DEB", "OBJECT_ID": "1993-036BDL", "EPOCH": "2025-12-11T22:29:04.773984", "MEAN_MOTION": 14.2719583, "ECCENTRICITY": 0.00783952, "INCLINATION": 74.044, "RA_OF_ASC_NODE": 194.1933, "ARG_OF_PERICENTER": 245.0302, "MEAN_ANOMALY": 114.2689, "EPHEMERIS_TYPE": 0, "CLASSIFICATION_TYPE": "U", "NORAD_CAT_ID": 36550, "ELEMENT_SET_NO": 999, "REV_AT_EPOCH": 84584, "BSTAR": 0.00089503429, "MEAN_MOTION_DOT": 2.233e-05, "MEAN_MOTION_DDOT": 0}, "tle": {"line1": "1 36550U 93036BDL 25345.93686081  .00002233  00000+0  89503-3 0  9997", "line2": "2 36550  74.0440 194.1933 0078395 245.0302 114.2689 14.27195830845848"}}, "geometry": {"type": "Point", "coordinates": [12.233358702729497, 4.408736031370202]}}, {"type": "Feature", "properties": {"norad_id": 36551, "name": "COSMOS 2251 DEB", "group": "cosmos-2251-debris", "lat": 56.64550497003342, "lon": 169.5131266072931, "alt_km": 585.1407101076893, "timestamp": "2025-12-12T07:43:20.913290+00:00", "meta": {"OBJECT_NAME": "COSMOS 2251 DEB", "OBJECT_ID": "1993-036BDM", "EPOCH": "2025-12-11T08:49:13.161216", "MEAN_MOTION": 15.02499936, "ECCENTRICITY": 0.00508907, "INCLINATION": 73.8866, "RA_OF_ASC_NODE": 17.5288, "ARG_OF_PERICENTER": 326.8446, "MEAN_ANOMALY": 32.9554, "EPHEMERIS_TYPE": 0, "CLASSIFICATION_TYPE": "U", "NORAD_CAT_ID": 36551, "ELEMENT_SET_NO": 999, "REV_AT_EPOCH": 66911, "BSTAR": 0.0023963096, "MEAN_MOTION_DOT": 0.00032841, "MEAN_MOTION_DDOT": 0}, "tle": {"line1": "1 36551U 93036BDM 25345.36751344  .00032841  00000+0  23963-2 0  9995", "line2": "2 36551  73.8866  17.5288 0050890 326.8446  32.9554 15.02499936669115"}}, "geometry": {"type": "Point", "coordinates": [169.5131266072931, 56.64550497003342]}}, {"type": "Feature", "properties": {"norad_id": 36557, "name": "COSMOS 2251 DEB", "group": "cosmos-2251-debris", "lat": 39.72604841998033, "lon": -66.74088037260842, "alt_km": 642.9509249721823, "timestamp": "2025-12-12T07:43:20.913301+00:00", "meta": {"OBJECT_NAME": "COSMOS 2251 DEB", "OBJECT_ID": "1993-036BDT", "EPOCH": "2025-12-11T16:28:44.136480", "MEAN_MOTION": 14.78160391, "ECCENTRICITY": 0.00210346, "INCLINATION": 73.9786, "RA_OF_ASC_NODE": 128.3248, "ARG_OF_PERICENTER": 280.1534, "MEAN_ANOMALY": 79.7268, "EPHEMERIS_TYPE": 0, "CLASSIFICATION_TYPE": "U", "NORAD_CAT_ID": 36557, "ELEMENT_SET_NO": 999, "REV_AT_EPOCH": 33881, "BSTAR": 0.0052972788, "MEAN_MOTION_DOT": 0.00038702, "MEAN_MOTION_DDOT": 0}, "tle": {"line1": "1 36557U 93036BDT 25345.68662195  .00038702  00000+0  52973-2 0  9996", "line2": "2 36557  73.9786 128.3248 0021034 280.1534  79.7268 14.78160391338811"}}, "geometry": {"type": "Point", "coordinates": [-66.74088037260842, 39.72604841998033]}}, {"type": "Feature", "properties": {"norad_id": 36558, "name": "COSMOS 2251 DEB", "group": "cosmos-2251-debris", "lat": 63.440226355570786, "lon": -59.583434381123524, "alt_km": 707.7719399401776, "timestamp": "2025-12-12T07:43:20.913311+00:00", "meta": {"OBJECT_NAME": "COSMOS 2251 DEB", "OBJECT_ID": "1993-036BDU", "EPOCH": "2025-12-09T18:10:09.606432", "MEAN_MOTION": 14.55323693, "ECCENTRICITY": 0.00129627, "INCLINATION": 74.0418, "RA_OF_ASC_NODE": 160.1895, "ARG_OF_PERICENTER": 248.6111, "MEAN_ANOMALY": 111.367, "EPHEMERIS_TYPE": 0, "CLASSIFICATION_TYPE": "U", "NORAD_CAT_ID": 36558, "ELEMENT_SET_NO": 999, "REV_AT_EPOCH": 85225, "BSTAR": 0.0013992246, "MEAN_MOTION_DOT": 6.051e-05, "MEAN_MOTION_DDOT": 0}, "tle": {"line1": "1 36558U 93036BDU 25343.75705563  .00006051  00000+0  13992-2 0  9990", "line2": "2 36558  74.0418 160.1895 0012962 248.6111 111.3670 14.55323693852258"}}, "geometry": {"type": "Point", "coordinates": [-59.583434381123524, 63.440226355570786]}}, {"type": "Feature", "properties": {"norad_id": 36559, "name": "COSMOS 2251 DEB", "group": "cosmos-2251-debris", "lat": 33.685541242174274, "lon": 21.456966058619376, "alt_km": 720.4757631997472, "timestamp": "2025-12-12T07:43:20.913321+00:00", "meta": {"OBJECT_NAME": "COSMOS 2251 DEB", "OBJECT_ID": "1993-036BDV", "EPOCH": "2025-12-09T02:07:20.280288", "MEAN_MOTION": 13.95143806, "ECCENTRICITY": 0.02599602, "INCLINATION": 74.1299, "RA_OF_ASC_NODE": 16.0496, "ARG_OF_PERICENTER": 49.9692, "MEAN_ANOMALY": 312.3935, "EPHEMERIS_TYPE": 0, "CLASSIFICATION_TYPE": "U", "NORAD_CAT_ID": 36559, "ELEMENT_SET_NO": 999, "REV_AT_EPOCH": 81043, "BSTAR": 0.0028021544, "MEAN_MOTION_DOT": 4.995e-05, "MEAN_MOTION_DDOT": 0}, "tle": {"line1": "1 36559U 93036BDV 25343.08842917  .00004995  00000+0  28022-2 0  9997", "line2": "2 36559  74.1299  16.0496 0259960  49.9692 312.3935 13.95143806810430"}}, "geometry": {"type": "Point", "coordinates": [21.456966058619376, 33.685541242174274]}}, {"type": "Feature", "properties": {"norad_id": 36614, "name": "COSMOS 2251 DEB", "group": "cosmos-2251-debris", "lat": 55.55158734780009, "lon": -29.30494420113568, "alt_km": 693.1104375428504, "timestamp": "2025-12-12T07:43:20.913332+00:00", "meta": {"OBJECT_NAME": "COSMOS 2251 DEB", "OBJECT_ID": "1993-036BEC", "EPOCH": "2025-12-11T06:30:21.400992", "MEAN_MOTION": 14.60233542, "ECCENTRICITY": 0.00161993, "INCLINATION": 74.0218, "RA_OF_ASC_NODE": 177.391, "ARG_OF_PERICENTER": 247.2616, "MEAN_ANOMALY": 112.6838, "EPHEMERIS_TYPE": 0, "CLASSIFICATION_TYPE": "U", "NORAD_CAT_ID": 36614, "ELEMENT_SET_NO": 999, "REV_AT_EPOCH": 65591, "BSTAR": 0.0024222077, "MEAN_MOTION_DOT": 0.00011696, "MEAN_MOTION_DDOT": 0}, "tle": {"line1": "1 36614U 93036BEC 25345.27108103  .00011696  00000+0  24222-2 0  9998", "line2": "2 36614  74.0218 177.3910 0016199 247.2616 112.6838 14.60233542655911"}}, "geometry": {"type": "Point", "coordinates": [-29.30494420113568, 55.55158734780009]}}, {"type": "Feature", "properties": {"norad_id": 36622, "name": "COSMOS 2251 DEB", "group": "cosmos-2251-debris", "lat": 18.14225963257219, "lon": -39.093757566737885, "alt_km": 665.809364032375, "timestamp": "2025-12-12T07:43:20.913342+00:00", "meta": {"OBJECT_NAME": "COSMOS 2251 DEB", "OBJECT_ID": "1993-036BEL", "EPOCH": "2025-12-11T03:20:19.326912", "MEAN_MOTION": 14.76171413, "ECCENTRICITY": 0.00687351, "INCLINATION": 74.0133, "RA_OF_ASC_NODE": 148.6143, "ARG_OF_PERICENTER": 284.3328, "MEAN_ANOMALY": 75.0222, "EPHEMERIS_TYPE": 0, "CLASSIFICATION_TYPE": "U", "NORAD_CAT_ID": 36622, "ELEMENT_SET_NO": 999, "REV_AT_EPOCH": 66726, "BSTAR": 0.0010239772, "MEAN_MOTION_DOT": 7.33e-05, "MEAN_MOTION_DDOT": 0}, "tle": {"line1": "1 36622U 93036BEL 25345.13911258  .00007330  00000+0  10240-2 0  9990", "line2": "2 36622  74.0133 148.6143 0068735 284.3328  75.0222 14.76171413667265"}}, "geometry": {"type": "Point", "coordinates": [-39.093757566737885, 18.14225963257219]}}, {"type": "Feature", "properties": {"norad_id": 36632, "name": "COSMOS 2251 DEB", "group": "cosmos-2251-debris", "lat": 12.513735684526226, "lon": -63.20064319872591, "alt_km": 728.7509118927464, "timestamp": "2025-12-12T07:43:20.913352+00:00", "meta": {"OBJECT_NAME": "COSMOS 2251 DEB", "OBJECT_ID": "1993-036BEW", "EPOCH": "2025-12-11T03:22:48.137088", "MEAN_MOTION": 14.43159024, "ECCENTRICITY": 0.00319439, "INCLINATION": 74.0027, "RA_OF_ASC_NODE": 295.3456, "ARG_OF_PERICENTER": 43.4523, "MEAN_ANOMALY": 316.9142, "EPHEMERIS_TYPE": 0, "CLASSIFICATION_TYPE": "U", "NORAD_CAT_ID": 36632, "ELEMENT_SET_NO": 999, "REV_AT_EPOCH": 65192, "BSTAR": 0.001324385, "MEAN_MOTION_DOT": 4.453e-05, "MEAN_MOTION_DDOT": 0}, "tle": {"line1": "1 36632U 93036BEW 25345.14083492  .00004453  00000+0  13244-2 0  9992", "line2": "2 36632  74.0027 295.3456 0031943  43.4523 316.9142 14.43159024651929"}}, "geometry": {"type": "Point", "coordinates": [-63.20064319872591, 12.513735684526226]}}]}